[{"OBJECT_NAME":"GAOFEN-9 05","OBJECT_ID":"2020-058A","EPOCH":"2026-03-10T00:01:50.876256","MEAN_MOTION":15.30293976,"ECCENTRICITY":0.0010522,"INCLINATION":97.2228,"RA_OF_ASC_NODE":111.963,"ARG_OF_PERICENTER":91.0204,"MEAN_ANOMALY":269.2242,"EPHEMERIS_TYPE":0,"CLASSIFICATION_TYPE":"U","NORAD_CAT_ID":46232,"ELEMENT_SET_NO":999,"REV_AT_EPOCH":30843,"BSTAR":0.00025120304,"MEAN_MOTION_DOT":7.299e-5,"MEAN_MOTION_DDOT":0},{"OBJECT_NAME":"STARLINK-34224","OBJECT_ID":"2025-119U","EPOCH":"2026-03-09T01:05:40.856928","MEAN_MOTION":15.27583101,"ECCENTRICITY":0.00018358,"INCLINATION":43.003,"RA_OF_ASC_NODE":310.4451,"ARG_OF_PERICENTER":257.2623,"MEAN_ANOMALY":102.8023,"EPHEMERIS_TYPE":0,"CLASSIFICATION_TYPE":"U","NORAD_CAT_ID":64251,"ELEMENT_SET_NO":999,"REV_AT_EPOCH":4407,"BSTAR":0.0013817195,"MEAN_MOTION_DOT":0.0003796,"MEAN_MOTION_DDOT":0}]
